OBJECT_NAME,OBJECT_ID,EPOCH,MEAN_MOTION,ECCENTRICITY,INCLINATION,RA_OF_ASC_NODE,ARG_OF_PERICENTER,MEAN_ANOMALY,EPHEMERIS_TYPE,CLASSIFICATION_TYPE,NORAD_CAT_ID,ELEMENT_SET_NO,REV_AT_EPOCH,BSTAR,MEAN_MOTION_DOT,MEAN_MOTION_DDOT
STARLINK-37593,2026-123C,2026-06-30T06:12:41.101920,15.81124375,.00010059,53.1568,176.2989,183.1625,176.9392,0,U,69355,999,410,.20202521E-2,.423083E-2,0
STARLINK-37597,2026-123D,2026-06-30T14:20:39.930432,15.75893241,.0001109,53.1594,174.8667,35.6432,324.4662,0,U,69356,999,415,-.88698E-2,-.1236414E-1,0
STARLINK-37598,2026-123E,2026-06-30T04:36:17.529120,15.81184312,.00039663,53.1563,176.5897,205.9333,154.1492,0,U,69357,999,409,.20996348E-2,.44195E-2,0
STARLINK-37602,2026-123F,2026-06-30T13:28:30.268416,15.75282337,.0001651,53.1583,175.3635,66.2806,293.8387,0,U,69358,999,414,.10743E-2,.167666E-2,0
STARLINK-37600,2026-123G,2026-06-30T05:45:37.227744,15.75264804,.00012035,53.1570,176.9110,77.6196,282.4959,0,U,69359,999,409,.79459746E-3,.123088E-2,0
STARLINK-37599,2026-123H,2026-06-30T04:21:20.952864,15.80869406,.00014134,53.1569,176.5199,111.3752,248.7422,0,U,69360,999,409,.19962391E-2,.412648E-2,0
STARLINK-37039,2026-123J,2026-06-29T17:01:34.728672,15.75285084,.00013349,53.1585,179.2811,110.9255,249.1908,0,U,69361,999,401,.13612496E-2,.213811E-2,0
STARLINK-37040,2026-123K,2026-06-30T14:37:54.100416,15.80941947,.0002088,53.1561,174.2033,153.8623,206.2506,0,U,69362,999,416,.10769E-2,.217993E-2,0
STARLINK-37582,2026-123L,2026-06-30T13:09:21.457728,15.75289579,.0001323,53.1559,175.2713,90.5059,269.6113,0,U,69363,999,414,.12126E-2,.189882E-2,0
STARLINK-37309,2026-123M,2026-06-30T20:00:01.999008,15.75220574,.0001106,53.1583,173.2734,101.2770,0.3396,0,U,69364,999,549,.92851E-4,.13605E-3,0
STARLINK-37436,2026-123N,2026-06-29T23:08:23.453376,15.80969790,.00017769,53.1564,177.2831,183.7596,176.3413,0,U,69365,999,406,.10006999E-2,.202409E-2,0
STARLINK-37581,2026-123P,2026-06-30T12:53:09.626208,15.80978507,.00012918,53.1558,174.4572,67.1200,292.9959,0,U,69366,999,415,.13060147E-2,.266471E-2,0
STARLINK-37683,2026-123Q,2026-06-30T12:23:07.939104,15.75356144,.00019471,53.1562,175.0553,151.2473,208.8655,0,U,69367,999,414,.10640041E-2,.166564E-2,0
STARLINK-37687,2026-123R,2026-06-30T20:00:01.999008,15.80817691,.0001042,53.1568,172.8746,97.0663,197.9373,0,U,69368,999,535,.50217E-3,.99305E-3,0
STARLINK-37631,2026-123S,2026-06-30T20:00:01.999008,15.75238507,.0000884,53.1585,173.0606,104.7963,99.8308,0,U,69369,999,540,-.10014E-3,-.1596E-3,0
STARLINK-37673,2026-123T,2026-06-30T20:00:01.999008,15.75226089,.0001132,53.1589,173.3253,86.2340,349.6296,0,U,69370,999,540,.38917E-4,.5327E-4,0
STARLINK-37645,2026-123U,2026-06-30T05:38:56.384448,15.75278946,.00012036,53.1582,176.1372,129.3577,230.7550,0,U,69371,999,410,.76088989E-3,.117838E-2,0
STARLINK-37688,2026-123V,2026-06-30T20:00:01.999008,15.75215931,.0001065,53.1594,173.0018,97.8358,134.3881,0,U,69372,999,540,.12353E-3,.18318E-3,0
STARLINK-37685,2026-123W,2026-06-30T11:09:03.656160,15.80986107,.00013826,53.1564,174.7114,158.2779,201.8302,0,U,69373,999,414,.12547371E-2,.255749E-2,0
STARLINK-37632,2026-123X,2026-06-30T11:07:59.759904,15.80982938,.00011277,53.1567,174.7063,138.1611,221.9498,0,U,69374,999,414,.12510895E-2,.254943E-2,0
STARLINK-37454,2026-123Y,2026-06-30T11:06:23.686560,15.80939406,.00009258,53.1564,174.6981,142.6556,217.4531,0,U,69375,999,414,.73213838E-3,.14673E-2,0
STARLINK-37485,2026-123Z,2026-06-30T13:08:46.296384,15.75402797,.000632,53.1580,174.5481,41.2659,318.8838,0,U,69376,999,415,-.59768E-3,-.92061E-3,0
STARLINK-37439,2026-123AA,2026-06-30T10:55:06.286368,15.80948186,.00011858,53.1575,174.6441,110.6673,249.4477,0,U,69377,999,414,.75307878E-3,.151086E-2,0
STARLINK-37376,2026-123AB,2026-06-30T12:03:31.811328,15.75279154,.0001237,53.1593,174.9626,124.1791,235.9346,0,U,69378,999,414,.72316E-3,.111885E-2,0
STARLINK-37383,2026-123AC,2026-06-30T20:00:01.999008,15.75225985,.0001044,53.1594,172.8963,96.9387,184.9550,0,U,69379,999,549,.24276E-4,.3081E-4,0
STARLINK-37411,2026-123AD,2026-06-30T12:28:06.763872,15.80983291,.00035679,53.1568,174.3355,21.5305,338.5867,0,U,69380,999,415,.17182387E-2,.354555E-2,0
STARLINK-37427,2026-123AE,2026-06-30T20:00:01.999008,15.80844358,.0001011,53.1568,172.7140,92.1078,278.5453,0,U,69381,999,540,.208E-3,.40491E-3,0
QIANFAN-165,2026-124A,2026-06-30T19:47:35.477952,14.16014580,.000361,88.9986,0.4986,104.1487,256.0102,0,U,69382,999,374,.38029E-4,.89E-6,0
QIANFAN-166,2026-124B,2026-06-30T19:26:40.413408,14.17061858,.0003051,88.9986,0.4966,100.3942,259.7591,0,U,69383,999,374,.3852E-4,.92E-6,0
QIANFAN-167,2026-124C,2026-06-30T19:34:18.984864,14.16528019,.0003413,88.9985,0.4971,135.7165,224.4297,0,U,69384,999,374,.30702E-4,.75E-6,0
