STARLINK-37593          
1 69355U 26123C   26181.25880905  .00423083  00000+0  20203-2 0  9995
2 69355  53.1568 176.2989 0001005 183.1625 176.9392 15.81124375  4101
STARLINK-37597          
1 69356U 26123D   26181.59768438 -.01236414  00000+0 -88698-2 0  9994
2 69356  53.1594 174.8667 0001109  35.6432 324.4662 15.75893241  4153
STARLINK-37598          
1 69357U 26123E   26181.19186955  .00441950  00000+0  20996-2 0  9996
2 69357  53.1563 176.5897 0003966 205.9333 154.1492 15.81184312  4090
STARLINK-37602          
1 69358U 26123F   26181.56146144  .00167666  00000+0  10743-2 0  9992
2 69358  53.1583 175.3635 0001651  66.2806 293.8387 15.75282337  4141
STARLINK-37600          
1 69359U 26123G   26181.24001421  .00123088  00000+0  79460-3 0  9998
2 69359  53.1570 176.9110 0001203  77.6196 282.4959 15.75264804  4096
STARLINK-37599          
1 69360U 26123H   26181.18149251  .00412648  00000+0  19962-2 0  9990
2 69360  53.1569 176.5199 0001413 111.3752 248.7422 15.80869406  4091
STARLINK-37039          
1 69361U 26123J   26180.70942973  .00213811  00000+0  13612-2 0  9997
2 69361  53.1585 179.2811 0001334 110.9255 249.1908 15.75285084  4010
STARLINK-37040          
1 69362U 26123K   26181.60965394  .00217993  00000+0  10769-2 0  9995
2 69362  53.1561 174.2033 0002088 153.8623 206.2506 15.80941947  4165
STARLINK-37582          
1 69363U 26123L   26181.54816502  .00189882  00000+0  12126-2 0  9999
2 69363  53.1559 175.2713 0001323  90.5059 269.6113 15.75289579  4145
STARLINK-37309          
1 69364U 26123M   26181.83335647  .00013605  00000+0  92851-4 0  9992
2 69364  53.1583 173.2734 0001106 101.2770   0.3396 15.75220574  5495
STARLINK-37436          
1 69365U 26123N   26180.96416034  .00202409  00000+0  10007-2 0  9999
2 69365  53.1564 177.2831 0001776 183.7596 176.3413 15.80969790  4063
STARLINK-37581          
1 69366U 26123P   26181.53691697  .00266471  00000+0  13060-2 0  9995
2 69366  53.1558 174.4572 0001291  67.1200 292.9959 15.80978507  4153
STARLINK-37683          
1 69367U 26123Q   26181.51606411  .00166564  00000+0  10640-2 0  9997
2 69367  53.1562 175.0553 0001947 151.2473 208.8655 15.75356144  4149
STARLINK-37687          
1 69368U 26123R   26181.83335647  .00099305  00000+0  50217-3 0  9996
2 69368  53.1568 172.8746 0001042  97.0663 197.9373 15.80817691  5353
STARLINK-37631          
1 69369U 26123S   26181.83335647 -.00015960  00000+0 -10014-3 0  9995
2 69369  53.1585 173.0606 0000884 104.7963  99.8308 15.75238507  5404
STARLINK-37673          
1 69370U 26123T   26181.83335647  .00005327  00000+0  38917-4 0  9994
2 69370  53.1589 173.3253 0001132  86.2340 349.6296 15.75226089  5405
STARLINK-37645          
1 69371U 26123U   26181.23537482  .00117838  00000+0  76089-3 0  9992
2 69371  53.1582 176.1372 0001203 129.3577 230.7550 15.75278946  4100
STARLINK-37688          
1 69372U 26123V   26181.83335647  .00018318  00000+0  12353-3 0  9995
2 69372  53.1594 173.0018 0001065  97.8358 134.3881 15.75215931  5404
STARLINK-37685          
1 69373U 26123W   26181.46462565  .00255749  00000+0  12547-2 0  9990
2 69373  53.1564 174.7114 0001382 158.2779 201.8302 15.80986107  4142
STARLINK-37632          
1 69374U 26123X   26181.46388611  .00254943  00000+0  12511-2 0  9996
2 69374  53.1567 174.7063 0001127 138.1611 221.9498 15.80982938  4145
STARLINK-37454          
1 69375U 26123Y   26181.46277415  .00146730  00000+0  73214-3 0  9998
2 69375  53.1564 174.6981 0000925 142.6556 217.4531 15.80939406  4144
STARLINK-37485          
1 69376U 26123Z   26181.54775806 -.00092061  00000+0 -59768-3 0  9992
2 69376  53.1580 174.5481 0006320  41.2659 318.8838 15.75402797  4159
STARLINK-37439          
1 69377U 26123AA  26181.45493387  .00151086  00000+0  75308-3 0  9993
2 69377  53.1575 174.6441 0001185 110.6673 249.4477 15.80948186  4142
STARLINK-37376          
1 69378U 26123AB  26181.50245152  .00111885  00000+0  72316-3 0  9994
2 69378  53.1593 174.9626 0001237 124.1791 235.9346 15.75279154  4141
STARLINK-37383          
1 69379U 26123AC  26181.83335647  .00003081  00000+0  24276-4 0  9991
2 69379  53.1594 172.8963 0001044  96.9387 184.9550 15.75225985  5499
STARLINK-37411          
1 69380U 26123AD  26181.51952273  .00354555  00000+0  17182-2 0  9999
2 69380  53.1568 174.3355 0003567  21.5305 338.5867 15.80983291  4157
STARLINK-37427          
1 69381U 26123AE  26181.83335647  .00040491  00000+0  20800-3 0  9998
2 69381  53.1568 172.7140 0001011  92.1078 278.5453 15.80844358  5408
QIANFAN-165             
1 69382U 26124A   26181.82471618  .00000089  00000+0  38029-4 0  9990
2 69382  88.9986   0.4986 0003610 104.1487 256.0102 14.16014580  3740
QIANFAN-166             
1 69383U 26124B   26181.81018997  .00000092  00000+0  38520-4 0  9997
2 69383  88.9986   0.4966 0003051 100.3942 259.7591 14.17061858  3745
QIANFAN-167             
1 69384U 26124C   26181.81549751  .00000075  00000+0  30702-4 0  9990
2 69384  88.9985   0.4971 0003413 135.7165 224.4297 14.16528019  3740
